[{"OBJECT_NAME":"STARLINK-4647","OBJECT_ID":"2022-104W","EPOCH":"2026-03-09T21:32:09.547008","MEAN_MOTION":15.0884147,"ECCENTRICITY":0.00012734,"INCLINATION":53.2172,"RA_OF_ASC_NODE":233.3809,"ARG_OF_PERICENTER":87.8287,"MEAN_ANOMALY":272.2851,"EPHEMERIS_TYPE":0,"CLASSIFICATION_TYPE":"U","NORAD_CAT_ID":53608,"ELEMENT_SET_NO":999,"REV_AT_EPOCH":19566,"BSTAR":8.3834508e-5,"MEAN_MOTION_DOT":1.047e-5,"MEAN_MOTION_DDOT":0},{"OBJECT_NAME":"DELTA 1 DEB","OBJECT_ID":"1977-065CB","EPOCH":"2026-03-09T00:48:12.317760","MEAN_MOTION":13.97995904,"ECCENTRICITY":0.05328634,"INCLINATION":29.0786,"RA_OF_ASC_NODE":354.7404,"ARG_OF_PERICENTER":16.4646,"MEAN_ANOMALY":345.2542,"EPHEMERIS_TYPE":0,"CLASSIFICATION_TYPE":"U","NORAD_CAT_ID":10250,"ELEMENT_SET_NO":999,"REV_AT_EPOCH":29411,"BSTAR":0.0013731025,"MEAN_MOTION_DOT":6.972e-5,"MEAN_MOTION_DDOT":0}]
